IRIDIUM 112             
1 41925U 17003J   24064.77183187  .00000192  00000+0  61344-4 0  9993
2 41925  86.3907  77.0257 0002086  87.7795 272.3640 14.34218103373670
IRIDIUM 111             
1 41926U 17003K   24064.96845230  .00000078  00000+0  20944-4 0  9993
2 41926  86.3907  76.9955 0002003  93.8299 266.3126 14.34217661373681
IRIDIUM 113             
1 42803U 17039A   24064.73910488  .00000469  00000+0  16029-3 0  9992
2 42803  86.3976 310.8778 0001849  85.2669 274.8737 14.34217653351586
IRIDIUM 123             
1 42804U 17039B   24064.85035865  .00000416  00000+0  14160-3 0  9999
2 42804  86.4023 342.3217 0001970  86.2232 273.9189 14.34216578350362
IRIDIUM 120             
1 42805U 17039C   24064.94207476  .00000316  00000+0  10564-3 0  9992
2 42805  86.3964 310.6837 0002107  82.9637 277.1799 14.34216862351604
IRIDIUM 115             
1 42806U 17039D   24064.92992311  .00000470  00000+0  13384-3 0  9994
2 42806  86.4503 310.6983 0001934  86.1748 273.9674 14.43279360353939
IRIDIUM 118             
1 42807U 17039E   24064.81230137  .00000408  00000+0  13871-3 0  9996
2 42807  86.4021 342.3394 0002158  83.6295 276.5147 14.34217718350357
IRIDIUM 117             
1 42808U 17039F   24064.83132864  .00000238  00000+0  77864-4 0  9991
2 42808  86.4021 342.2967 0002004  90.6994 269.4431 14.34218468350380
